217P/LINEAR,e,12.8632,125.3855,247.0058,3.946754,0.1257025,0.68925507,303.1965,02/28.0/2024,2000,g 12.0,4.0
# From MPEC 2022-K19
218P/LINEAR,e,2.7282,175.7925,59.7652,3.081552,0.1822006,0.62666608,225.8485,02/28.0/2024,2000,g 16.0,4.0
# From MPEC 2024-DC6
219P/LINEAR,e,11.5400,230.9532,107.6263,3.644978,0.1416321,0.35394926,2.0074,02/28.0/2024,2000,g 11.0,4.0
# From MPEC 2024-A43
220P/McNaught,e,8.1242,150.1049,180.6136,3.118860,0.1789412,0.50081454,210.2362,02/28.0/2024,2000,g 15.0,4.0
# From MPEC 2022-UY9
221P/LINEAR,e,11.5163,229.5940,39.5657,3.440416,0.1544499,0.49929311,123.4492,02/28.0/2024,2000,g 14.5,4.0
# From MPC 92277
222P/LINEAR,e,5.0961,6.7851,346.2828,2.897570,0.1998266,0.71468979,345.0343,02/28.0/2024,2000,g 20.0,4.0
# From MPEC 2023-A50
223P/Skiff,e,27.0131,346.7446,37.9267,4.158322,0.1162323,0.41654462,215.6195,02/28.0/2024,2000,g 12.0,4.0
# From MPEC 2023-BF4
224P/LINEAR-NEAT,e,13.3056,40.0378,16.7439,3.445291,0.1541222,0.40587570,79.5086,02/28.0/2024,2000,g 15.5,4.0
# From MPEC 2024-D33
225P/LINEAR,e,21.3660,14.2020,3.9004,3.647591,0.1414799,0.63846274,28.8585,02/28.0/2024,2000,g 18.0,4.0
# From MPEC 2024-DC6
226P/Pigott-LINEAR-Kowalski,e,44.0464,54.0121,341.0557,3.767848,0.1347609,0.52925019,8.4630,02/28.0/2024,2000,g 12.5,4.0
# From MPEC 2024-DC6
227P/Catalina-LINEAR,e,7.5086,36.8082,105.5688,3.435815,0.1547602,0.52744166,358.5688,02/28.0/2024,2000,g 16.5,2.0
# From MPEC 2022-HC2
228P/LINEAR,e,7.9133,30.9775,114.7436,4.164666,0.1159668,0.17674586,168.4055,02/28.0/2024,2000,g 14.1,4.0
# From MPC106349
229P/Gibbs,e,26.0992,157.9357,224.1143,3.924125,0.1267914,0.37797542,312.8774,02/28.0/2024,2000,g 13.0,4.0
# From MPEC 2023-KD6
230P/LINEAR,e,15.4686,106.9506,313.5186,3.454026,0.1535379,0.54566640,109.0857,02/28.0/2024,2000,g 13.0,4.0
# From MPEC 2023-SQ0
231P/LINEAR-NEAT,e,12.2756,132.8759,44.0850,4.053877,0.1207531,0.24090113,208.4058,02/28.0/2024,2000,g 14.5,2.0
# From MPC112394
232P/Hill,e,14.6443,56.0293,53.2151,4.472618,0.1041985,0.33551703,186.3050,02/28.0/2024,2000,g 11.5,4.0
# From MPEC 2021-N06
233P/La Sagra,e,11.2889,74.9009,26.9829,3.027416,0.1871096,0.41268931,232.7238,02/28.0/2024,2000,g 15.0,4.0
# From MPEC 2024-DC6
234P/LINEAR,e,11.5356,179.5668,357.4172,3.795649,0.1332831,0.25679865,328.2022,02/28.0/2024,2000,g 12.0,4.0
# From MPC110497
235P/LINEAR,e,9.7250,204.1977,347.4470,3.512012,0.1497511,0.40906798,257.5776,02/28.0/2024,2000,g 12.0,4.0
# From MPEC 2023-J29
236P/LINEAR,e,16.3554,245.5690,119.3906,3.726134,0.1370302,0.50932859,313.1705,02/28.0/2024,2000,g 14.0,4.0
# From MPEC 2024-DC6
237P/LINEAR,e,14.0168,245.3561,25.2908,3.510577,0.1498429,0.43389029,43.3457,02/28.0/2024,2000,g 14.5,2.0
# From MPEC 2023-UR6
238P/Read,e,1.2640,51.6313,324.2411,3.165905,0.1749675,0.25119142,110.6855,02/28.0/2024,2000,g 14.5,4.0
# From MPEC 2021-F20
239P/LINEAR,e,11.3076,255.9458,220.3433,4.465810,0.1044368,0.63097739,195.8225,02/28.0/2024,2000,g 17.5,2.0
# From MPEC 2023-CD7
240P/NEAT,e,23.5367,74.9154,352.0027,3.862226,0.1298517,0.45027323,274.1819,02/28.0/2024,2000,g 11.0,4.0
# From MPEC 2022-J42
241P/LINEAR,e,21.0961,305.4702,111.5078,4.924644,0.0901866,0.61045881,85.3912,02/28.0/2024,2000,g 13.5,4.0
# From MPEC 2024-BE0
242P/Spahr,e,32.4667,180.3679,244.8848,5.527077,0.0758509,0.28144678,337.2818,02/28.0/2024,2000,g  8.0,4.0
# From MPEC 2022-K19
243P/NEAT,e,7.6433,87.6499,283.6520,3.828702,0.1315609,0.36058730,264.1915,02/28.0/2024,2000,g 12.5,4.0
# From MPEC 2024-DC6
244P/Scotti,e,2.2589,354.0067,93.2630,4.900115,0.0908646,0.19976012,42.3889,02/28.0/2024,2000,g  9.0,4.0
# From MPEC 2022-CN4
245P/WISE,e,21.1775,316.8900,316.5665,4.049833,0.1209340,0.45570426,267.7999,02/28.0/2024,2000,g 14.0,4.0
# From MPEC 2024-C04
246P/NEAT,e,16.8796,75.3237,181.8694,4.076173,0.1197637,0.28504611,131.0580,02/28.0/2024,2000,g 10.5,4.0
# From MPEC 2021-F20
247P/LINEAR,e,13.6591,54.0106,47.4360,3.965932,0.1247918,0.62525551,238.8156,02/28.0/2024,2000,g 16.5,2.0
# From MPC 75730
248P/Gibbs,e,6.3513,207.8186,209.9207,5.986015,0.0672973,0.63934872,321.9870,02/28.0/2024,2000,g 14.0,4.0
# From MPEC 2022-YN2
249P/LINEAR,e,8.3854,239.0467,65.7527,2.764384,0.2144404,0.81939014,287.1568,02/28.0/2024,2000,g 15.5,4.0
# From MPC110497
250P/Larson,e,13.1558,73.2913,45.9547,3.774295,0.1344158,0.39870385,300.2737,02/28.0/2024,2000,g 14.5,4.0
# From MPC104795
251P/LINEAR,e,23.3871,219.3229,31.2404,3.513898,0.1496306,0.50445624,2.2096,02/28.0/2024,2000,g 16.5,2.0
# From MPEC 2021-S45
252P/LINEAR,e,10.4157,190.9081,343.3889,3.051242,0.1849222,0.67082236,178.0018,02/28.0/2024,2000,g 17.5,4.0
# From MPEC 2020-FB5
253P/PANSTARRS,e,4.9453,146.9092,230.7557,3.462398,0.1529814,0.41458218,323.9040,02/28.0/2024,2000,g 14.5,4.0
# From MPEC 2024-D33
254P/McNaught,e,32.5514,129.1877,219.7328,4.618056,0.0993151,0.31913931,123.7411,02/28.0/2024,2000,g 11.0,4.0
# From NK 2214
255P/Levy,e,13.3996,275.6389,186.0321,2.942466,0.1952706,0.71182134,105.1210,02/28.0/2024,2000,g  9.0,4.0
# From MPEC 2023_O39
256P/LINEAR,e,27.6232,81.3275,124.1514,4.637971,0.0986761,0.41787587,34.8246,02/28.0/2024,2000,g 14.0,2.0
# From MPEC 2023-A50
257P/Catalina,e,20.2195,207.7151,117.7845,3.766055,0.1348572,0.42934959,170.7433,02/28.0/2024,2000,g 11.5,4.0
# From MPEC 2021-U31
258P/PANSTARRS,e,6.7493,126.2320,25.6208,4.391395,0.1071027,0.20887805,144.6854,02/28.0/2024,2000,g 13.0,4.0
# From MPC106349
259P/Garradd,e,15.8985,51.3714,257.5477,2.728796,0.2186490,0.33882626,164.0033,02/28.0/2024,2000,g 15.5,4.0
# From MPEC 2022-O01
260P/McNaught,e,15.0509,349.3386,18.4668,3.623444,0.1428966,0.60914324,233.0136,02/28.0/2024,2000,g 13.5,4.0
# From MPEC 2021-J28
261P/Larson,e,6.0720,291.0681,67.3393,3.490397,0.1511443,0.42309692,259.0049,02/28.0/2024,2000,g 14.0,4.0
# From MPC 82322
262P/McNaught-Russell,e,29.2774,217.8887,171.0584,6.869930,0.0547363,0.81636038,224.2456,02/28.0/2024,2000,g 13.5,4.0
# From MPEC 2023_O39
263P/Gibbs,e,11.5236,105.5016,35.0354,3.041493,0.1858120,0.59367025,73.0971,02/28.0/2024,2000,g 18.0,4.0
# From MPC114608
264P/Larsen,e,25.8197,219.6251,342.3863,3.981799,0.1240467,0.35093059,222.5080,02/28.0/2024,2000,g 13.0,4.0
# From MPC 79870
265P/LINEAR,e,14.3558,342.9501,33.5105,4.258813,0.1121428,0.64735524,124.9022,02/28.0/2024,2000,g 14.5,4.0
# From MPEC 2021-F20
266P/Christensen,e,3.4272,4.9683,97.6958,3.529748,0.1486238,0.34053804,209.3836,02/28.0/2024,2000,g 14.7,4.0
# From MPC114608
267P/LONEOS,e,6.1429,228.6010,114.2300,3.209027,0.1714526,0.61422525,350.2597,02/28.0/2024,2000,g 19.5,4.0
# From MPC 92277
268P/Bernardi,e,15.6300,124.7830,359.9383,4.636374,0.0987271,0.47312090,331.0078,02/28.0/2024,2000,g 14.0,4.0
# From MPEC 2023-J29
269P/Jedicke,e,7.0843,241.7704,225.6635,7.063038,0.0525069,0.43269533,180.3138,02/28.0/2024,2000,g 10.0,4.0
# From MPC 88332
270P/Gehrels,e,2.9251,223.0367,209.8271,6.653608,0.0574273,0.46988474,224.4134,02/28.0/2024,2000,g  8.0,4.0
# From MPC 92277
271P/van Houten-Lemmon,e,6.8709,9.3285,36.4934,7.033170,0.0528418,0.39614372,204.5444,02/28.0/2024,2000,g 11.0,4.0
# From MPEC 2023-D41
272P/NEAT,e,18.0759,109.4471,27.8851,4.461884,0.1045747,0.45511496,61.7969,02/28.0/2024,2000,g 16.0,2.0
# From MPC 82723
273P/Pons-Gambart,e,136.5863,320.4075,20.2197,31.99481,0.0054461,0.97436965,0.0000,12/21.9628/2012,2000,g 11.5,4.0
# From MPEC 2023-M14
274P/Tombaugh-Tenagra,e,15.8191,81.3190,38.4725,4.377939,0.1075969,0.43990036,74.2845,02/28.0/2024,2000,g 13.9,4.0
# From MPC 81862
275P/Hermann,e,21.2596,348.6954,173.9290,5.788069,0.0707789,0.71331701,291.0922,02/28.0/2024,2000,g 17.0,4.0
# From MPEC 2024-BE0
276P/Vorobjov,e,14.8124,211.3398,199.3505,5.334958,0.0799848,0.26924817,337.0055,02/28.0/2024,2000,g 11.5,4.0
# From MPEC 2021-F20
277P/LINEAR,e,16.7866,276.2731,152.3849,3.853548,0.1302905,0.50642403,150.3647,02/28.0/2024,2000,g 15.1,4.0
# From MPEC 2021-S45
278P/McNaught,e,6.6796,15.2206,237.4945,3.672087,0.1400666,0.44000212,176.9088,02/28.0/2024,2000,g 14.0,4.0
# From MPEC 2024-A43
279P/LaSagra,e,5.0490,346.1652,5.7856,3.573799,0.1458844,0.39934289,45.9158,02/28.0/2024,2000,g 14.0,4.0
# From MPEC 2023-J95
280P/Larsen,e,11.7730,131.3758,104.7224,4.527969,0.1022937,0.41694614,21.2118,02/28.0/2024,2000,g 12.5,4.0
# From MPEC 2023-D41
281P/MOSS,e,4.7177,87.1705,26.7533,4.882038,0.0913697,0.17354027,35.7019,02/28.0/2024,2000,g 11.0,4.0
# From MPC133426
282P/,e,5.8121,217.6171,9.2413,4.237036,0.1130084,0.18772688,96.8551,02/28.0/2024,2000,g 13.5,2.0
# From MPEC 2022-K19
283P/Spacewatch,e,14.4593,161.1217,22.1762,4.133630,0.1172753,0.48441325,105.9345,02/28.0/2024,2000,g 16.0,2.0
# From MPEC 2024-D33
284P/McNaught,e,11.8579,144.2687,202.4710,3.677396,0.1397634,0.37492301,125.6027,02/28.0/2024,2000,g 13.0,4.0
# From MPEC 2023-B57
285P/LINEAR,e,25.0373,185.5038,178.3889,4.506196,0.1030360,0.61846444,42.4338,02/28.0/2024,2000,g 15.0,4.0
# From MPEC 2024-BE0
286P/Christensen,e,17.0911,283.6652,24.7538,4.104174,0.1185401,0.42683391,77.8762,02/28.0/2024,2000,g 14.0,4.0
# From MPEC 2024-A43
287P/Christensen,e,16.3173,139.0296,189.2409,4.167103,0.1158651,0.27177893,27.3923,02/28.0/2024,2000,g 13.5,4.0
# From MPC133426
288P/,e,3.2383,83.1067,280.2831,3.048978,0.1851282,0.20019854,134.8416,02/28.0/2024,2000,g 16.0,2.0
# From MPEC 2023-HD1
289P/Blanpain,e,5.9003,68.8925,9.8567,3.044517,0.1855353,0.68638188,283.6824,02/28.0/2024,2000,g 19.7,4.0
# From MPC 95214
290P/Jager,e,20.0506,302.6794,181.8212,6.216090,0.0635958,0.62780036,234.5989,02/28.0/2024,2000,g 10.5,4.0
# From MPEC 2024-D33
291P/NEAT,e,6.3098,237.6606,173.5073,4.533789,0.1020968,0.43416778,30.6265,02/28.0/2024,2000,g 13.0,4.0
# From MPEC 2022-K19
292P/Li,e,24.3131,90.9020,319.6061,6.098826,0.0654387,0.58998470,240.2586,02/28.0/2024,2000,g 12.5,4.0
# From MPEC 2022-L66
293P/Spacewatch,e,9.0613,78.3659,40.9492,3.639273,0.1419653,0.41899364,165.4467,02/28.0/2024,2000,g 14.5,4.0
# From MPEC 2020-SI8
294P/LINEAR,e,18.1476,311.5543,235.6880,3.192882,0.1727547,0.60123091,268.3635,02/28.0/2024,2000,g 15.5,4.0
# From MPEC 2022-K19
